DUCHIFAT-3              
1 44854U 19089C   20150.24464735  .00000302  00000-0  30829-4 0  9996
2 44854  36.9666 211.8677 0008966 275.9950  83.9782 14.99057617 25419
ORBITAL FACTORY 2 (OF-2)
1 45113U 19071C   20150.25735570  .00001621  00000-0  61146-4 0  9996
2 45113  51.6444  96.2740 0013095 351.3291   8.7463 15.33282962 18187
